NORAD_CAT_ID,OBJECT_NAME,OBJECT_TYPE,EPOCH,MEAN_MOTION,ECCENTRICITY,INCLINATION,RA_OF_ASC_NODE,ARG_OF_PERICENTER,MEAN_ANOMALY,BSTAR,MEAN_MOTION_DOT,MEAN_MOTION_DDOT,TLE_LINE0,TLE_LINE1,TLE_LINE2,SEMIMAJOR_AXIS,PERIOD,APOGEE,PERIGEE,DECAYED
52624.0,STARLINK-4009,PAYLOAD,2024-04-17 07:47:40,15.08844511,0.00015,53.2155,132.7577,94.6127,265.5037,0.00010429,1.372e-05,0.0,0 STARLINK-4009,1 52624U 22052AC  24108.32476920  .00001372  00000-0  10429-3 0  9990,2 52624  53.2155 132.7577 0001500  94.6127 265.5037 15.08844511106999,6917.867,95.437,540.769,538.694,0.0
52624.0,STARLINK-4009,PAYLOAD,2024-04-18 01:16:55,15.08839868,0.0001479,53.216,129.4877,90.0503,270.0659,1.0646e-05,-1.19e-06,0.0,0 STARLINK-4009,1 52624U 22052AC  24109.05341449 -.00000119  00000-0  10646-4 0  9999,2 52624  53.2160 129.4877 0001479  90.0503 270.0659 15.08839868107108,6917.881,95.438,540.769,538.723,0.0
52624.0,STARLINK-4009,PAYLOAD,2024-04-18 07:38:27,15.08836434,0.0001506,53.2162,128.2985,82.809,277.3073,-3.9609e-05,-9.18e-06,0.0,0 STARLINK-4009,1 52624U 22052AC  24109.31837948 -.00000918  00000-0 -39609-4 0  9990,2 52624  53.2162 128.2985 0001506  82.8090 277.3073 15.08836434106765,6917.891,95.438,540.798,538.714,0.0
52624.0,STARLINK-4009,PAYLOAD,2024-04-19 04:18:28,15.08849079,0.0001621,53.2167,124.4321,94.1761,265.9417,-8.8159e-05,-1.691e-05,0.0,0 STARLINK-4009,1 52624U 22052AC  24110.17949382 -.00001691  00000-0 -88159-4 0  9995,2 52624  53.2167 124.4321 0001621  94.1761 265.9417 15.08849079107272,6917.853,95.437,540.839,538.596,0.0
52624.0,STARLINK-4009,PAYLOAD,2024-04-19 10:40:00,15.08841115,0.0001483,53.2165,123.2425,92.2515,267.8647,6.3786e-05,7.27e-06,0.0,0 STARLINK-4009,1 52624U 22052AC  24110.44445341  .00000727  00000-0  63786-4 0  9997,2 52624  53.2165 123.2425 0001483  92.2515 267.8647 15.08841115106935,6917.877,95.437,540.768,538.716,0.0
52624.0,STARLINK-4009,PAYLOAD,2024-04-20 04:09:15,15.08836917,0.0001539,53.2161,119.9691,104.9453,255.171,7.7219e-05,9.41e-06,0.0,0 STARLINK-4009,1 52624U 22052AC  24111.17309638  .00000941  00000-0  77219-4 0  9990,2 52624  53.2161 119.9691 0001539 104.9453 255.1710 15.08836917107422,6917.89,95.438,540.819,538.69,0.0
52624.0,STARLINK-4009,PAYLOAD,2024-04-20 07:20:01,15.08837933,0.0001553,53.2162,119.3744,104.4266,255.6898,8.3575e-05,1.042e-05,0.0,0 STARLINK-4009,1 52624U 22052AC  24111.30557590  .00001042  00000-0  83575-4 0  9992,2 52624  53.2162 119.3744 0001553 104.4266 255.6898 15.08837933107060,6917.887,95.438,540.826,538.677,0.0
52624.0,STARLINK-4009,PAYLOAD,2024-04-21 04:00:03,15.08827933,0.0001691,53.2168,115.5097,111.5904,248.5268,-4.194e-05,-9.55e-06,0.0,0 STARLINK-4009,1 52624U 22052AC  24112.16670981 -.00000955  00000-0 -41940-4 0  9991,2 52624  53.2168 115.5097 0001691 111.5904 248.5268 15.08827933107573,6917.917,95.438,540.952,538.612,0.0
52624.0,STARLINK-4009,PAYLOAD,2024-04-21 07:10:50,15.08826017,0.000154,53.2168,114.9152,106.6639,253.4523,-6.9665e-05,-1.396e-05,0.0,0 STARLINK-4009,1 52624U 22052AC  24112.29919288 -.00001396  00000-0 -69665-4 0  9995,2 52624  53.2168 114.9152 0001540 106.6639 253.4523 15.08826017107213,6917.923,95.438,540.853,538.723,0.0
52624.0,STARLINK-4009,PAYLOAD,2024-04-21 23:04:41,15.08832759,0.0001375,53.2158,111.9354,110.8539,249.26,1.5129e-05,-4.7e-07,0.0,0 STARLINK-4009,1 52624U 22052AC  24112.96158944 -.00000047  00000-0  15129-4 0  9990,2 52624  53.2158 111.9354 0001375 110.8539 249.2600 15.08832759107315,6917.903,95.438,540.719,538.816,0.0
52624.0,STARLINK-4009,PAYLOAD,2024-04-22 03:50:50,15.08839786,0.0001256,53.216,111.0492,96.0132,264.1004,6.529e-05,7.51e-06,0.0,0 STARLINK-4009,1 52624U 22052AC  24113.16030407  .00000751  00000-0  65290-4 0  9991,2 52624  53.2160 111.0492 0001256  96.0132 264.1004 15.08839786107720,6917.881,95.438,540.615,538.877,0.0
52624.0,STARLINK-4009,PAYLOAD,2024-04-22 07:01:36,15.08844191,0.0001304,53.216,110.4535,103.4381,256.6757,7.8786e-05,9.66e-06,0.0,0 STARLINK-4009,1 52624U 22052AC  24113.29278092  .00000966  00000-0  78786-4 0  9991,2 52624  53.2160 110.4535 0001304 103.4381 256.6757 15.08844191107361,6917.868,95.437,540.635,538.83,0.0
52624.0,STARLINK-4009,PAYLOAD,2024-04-23 08:27:46,15.08839276,0.0001233,53.2164,105.6971,93.0814,267.0319,0.00016529,2.344e-05,0.0,0 STARLINK-4009,1 52624U 22052AC  24114.35262457  .00002344  00000-0  16529-3 0  9995,2 52624  53.2164 105.6971 0001233  93.0814 267.0319 15.08839276107909,6917.883,95.438,540.601,538.895,0.0
52624.0,STARLINK-4009,PAYLOAD,2024-04-24 08:18:33,15.08848772,0.0001331,53.2165,101.2351,92.5025,267.612,5.3737e-05,5.68e-06,0.0,0 STARLINK-4009,1 52624U 22052AC  24115.34622008  .00000568  00000-0  53737-4 0  9996,2 52624  53.2165 101.2351 0001331  92.5025 267.6120 15.08848772107672,6917.854,95.437,540.639,538.798,0.0
52624.0,STARLINK-4009,PAYLOAD,2024-04-25 04:58:35,15.08827695,0.0001488,53.2181,97.3621,81.8248,278.2913,0.00012593,1.716e-05,0.0,0 STARLINK-4009,1 52624U 22052AC  24116.20735028  .00001716  00000-0  12593-3 0  9999,2 52624  53.2181  97.3621 0001488  81.8248 278.2913 15.08827695108182,6917.918,95.438,540.812,538.754,0.0
52624.0,STARLINK-4009,PAYLOAD,2024-04-25 08:09:21,15.08839495,0.0001567,53.2181,96.7683,80.5671,279.5499,-3.8006e-05,-8.93e-06,0.0,0 STARLINK-4009,1 52624U 22052AC  24116.33982871 -.00000893  00000-0 -38006-4 0  9998,2 52624  53.2181  96.7683 0001567  80.5671 279.5499 15.08839495107821,6917.882,95.438,540.831,538.663,0.0
52624.0,STARLINK-4009,PAYLOAD,2024-04-26 04:49:21,15.08842828,0.000147,53.2176,92.9032,85.0052,275.1108,4.0405e-05,3.55e-06,0.0,0 STARLINK-4009,1 52624U 22052AC  24117.20094382  .00000355  00000-0  40405-4 0  9993,2 52624  53.2176  92.9032 0001470  85.0052 275.1108 15.08842828107954,6917.872,95.437,540.754,538.72,0.0
52624.0,STARLINK-4009,PAYLOAD,2024-04-26 15:57:03,15.08839638,0.000136,53.2171,90.8276,97.4087,262.7059,1.5852e-05,-3.6e-07,0.0,0 STARLINK-4009,1 52624U 22052AC  24117.66462620 -.00000036  00000-0  15852-4 0  9992,2 52624  53.2171  90.8276 0001360  97.4087 262.7059 15.08839638108402,6917.881,95.438,540.687,538.806,0.0
52624.0,STARLINK-4009,PAYLOAD,2024-04-27 07:50:55,15.08837978,0.0001404,53.2173,87.8548,93.2045,266.9107,4.7532e-05,4.69e-06,0.0,0 STARLINK-4009,1 52624U 22052AC  24118.32702904  .00000469  00000-0  47532-4 0  9997,2 52624  53.2173  87.8548 0001404  93.2045 266.9107 15.08837978108123,6917.887,95.438,540.723,538.78,0.0
52624.0,STARLINK-4009,PAYLOAD,2024-04-28 04:30:55,15.08841347,0.0001374,53.2172,83.9893,92.4646,267.6503,7.0797e-05,8.39e-06,0.0,0 STARLINK-4009,1 52624U 22052AC  24119.18814601  .00000839  00000-0  70797-4 0  9990,2 52624  53.2172  83.9893 0001374  92.4646 267.6503 15.08841347108635,6917.876,95.437,540.692,538.791,0.0
52624.0,STARLINK-4009,PAYLOAD,2024-04-28 14:03:14,15.08838006,0.0001343,53.2171,82.2051,91.1016,269.013,3.1507e-05,2.14e-06,0.0,0 STARLINK-4009,1 52624U 22052AC  24119.58558870  .00000214  00000-0  31507-4 0  9990,2 52624  53.2171  82.2051 0001343  91.1016 269.0130 15.08838006108310,6917.886,95.438,540.681,538.822,0.0
52624.0,STARLINK-4009,PAYLOAD,2024-04-29 07:32:29,15.0883962,0.0001286,53.2175,78.9336,89.3089,270.8051,5.2591e-05,5.49e-06,0.0,0 STARLINK-4009,1 52624U 22052AC  24120.31422790  .00000549  00000-0  52591-4 0  9991,2 52624  53.2175  78.9336 0001286  89.3089 270.8051 15.08839620108806,6917.882,95.438,540.636,538.857,0.0
52624.0,STARLINK-4009,PAYLOAD,2024-04-29 13:54:02,15.08837855,0.0001272,53.2174,77.7441,88.7461,271.3677,2.2512e-05,7e-07,0.0,0 STARLINK-4009,1 52624U 22052AC  24120.57918999  .00000070  00000-0  22512-4 0  9999,2 52624  53.2174  77.7441 0001272  88.7461 271.3677 15.08837855108461,6917.887,95.438,540.632,538.872,0.0
52624.0,STARLINK-4009,PAYLOAD,2024-04-30 04:12:30,15.08835259,0.0001305,53.2177,75.0684,90.5286,269.5856,-2.3993e-05,-6.7e-06,0.0,0 STARLINK-4009,1 52624U 22052AC  24121.17535465 -.00000670  00000-0 -23993-4 0  9991,2 52624  53.2177  75.0684 0001305  90.5286 269.5856 15.08835259108933,6917.895,95.438,540.663,538.857,0.0
52624.0,STARLINK-4009,PAYLOAD,2024-04-30 13:44:49,15.08838484,0.0001328,53.2182,73.2843,90.3613,269.7532,-1.1483e-05,-4.71e-06,0.0,0 STARLINK-4009,1 52624U 22052AC  24121.57279300 -.00000471  00000-0 -11483-4 0  9998,2 52624  53.2182  73.2843 0001328  90.3613 269.7532 15.08838484108614,6917.885,95.438,540.669,538.831,0.0
52624.0,STARLINK-4009,PAYLOAD,2024-04-30 21:41:44,15.08837609,0.0001328,53.218,71.7978,93.564,266.5504,3.4583e-05,2.63e-06,0.0,0 STARLINK-4009,1 52624U 22052AC  24121.90399270  .00000263  00000-0  34583-4 0  9997,2 52624  53.2180  71.7978 0001328  93.5640 266.5504 15.08837609108666,6917.888,95.438,540.671,538.834,0.0
52624.0,STARLINK-4009,PAYLOAD,2024-05-01 04:03:17,15.08841705,0.000133,53.2181,70.6082,92.5481,267.5664,4.34e-05,4.03e-06,0.0,0 STARLINK-4009,1 52624U 22052AC  24122.16895019  .00000403  00000-0  43400-4 0  9992,2 52624  53.2181  70.6082 0001330  92.5481 267.5664 15.08841705109083,6917.875,95.437,540.66,538.82,0.0
52624.0,STARLINK-4009,PAYLOAD,2024-05-01 13:35:35,15.08842527,0.0001335,53.2184,68.8237,88.0184,272.0961,5.0383e-05,5.14e-06,0.0,0 STARLINK-4009,1 52624U 22052AC  24122.56638881  .00000514  00000-0  50383-4 0  9999,2 52624  53.2184  68.8237 0001335  88.0184 272.0961 15.08842527108760,6917.873,95.437,540.661,538.814,0.0
52624.0,STARLINK-4009,PAYLOAD,2024-05-01 19:57:08,15.08839546,0.0001355,53.2181,67.6351,87.7772,272.3376,7.7469e-05,9.45e-06,0.0,0 STARLINK-4009,1 52624U 22052AC  24122.83134990  .00000945  00000-0  77469-4 0  9993,2 52624  53.2181  67.6351 0001355  87.7772 272.3376 15.08839546108807,6917.882,95.438,540.684,538.809,0.0
52624.0,STARLINK-4009,PAYLOAD,2024-05-02 05:29:27,15.08842768,0.0001329,53.2176,65.8503,88.1164,271.9981,7.7522e-05,9.46e-06,0.0,0 STARLINK-4009,1 52624U 22052AC  24123.22878811  .00000946  00000-0  77522-4 0  9995,2 52624  53.2176  65.8503 0001329  88.1164 271.9981 15.08842768109247,6917.872,95.437,540.656,538.818,0.0
